ORBCOMM FM24            
1 25478U 98053D   24292.80660305  .00005375  00000+0  18537-2 0  9993
2 25478  45.0088 332.5264 0000844 269.3672  90.7079 14.36707872362715
ORBCOMM FM25            
1 25479U 98053E   24292.84435258  .00005134  00000+0  17731-2 0  9993
2 25479  45.0077 330.6010 0001829 139.6177 220.4806 14.36696564363014
ORBCOMM FM26            
1 25480U 98053F   24292.78182385  .00004986  00000+0  17486-2 0  9999
2 25480  45.0071 325.7796 0004389 156.1310 203.9741 14.35969319362937
ORBCOMM FM27            
1 25481U 98053G   24292.83374385  .00005636  00000+0  19420-2 0  9992
2 25481  45.0061 330.9071 0002417 273.8484  86.2088 14.36685742362943
ORBCOMM FM28            
1 25482U 98053H   24292.91431518  .00005559  00000+0  19031-2 0  9996
2 25482  45.0052 268.4967 0002706 196.3284 163.7477 14.37025018363636
ORBCOMM FM30            
1 25980U 99065A   24292.93697155  .00004332  00000+0  15212-2 0  9991
2 25980  45.0297 150.7314 0005843 236.3428 123.6862 14.36115412299750
ORBCOMM FM31            
1 25981U 99065B   24292.90385758  .00004363  00000+0  15327-2 0  9993
2 25981  45.0210 144.4789 0003118 259.6760 100.3736 14.36084265299306
ORBCOMM FM32            
1 25982U 99065C   24292.92731961  .00004263  00000+0  15280-2 0  9994
2 25982  45.0140 159.3060 0005144 265.7445  94.2814 14.35111346299921
