<?xml version="1.0" encoding="UTF-8"?>
<ndm xmlns:xsi="http://www.w3.org/2001/XMLSchema-instance" xsi:noNamespaceSchemaLocation="https://sanaregistry.org/r/ndmxml_unqualified/ndmxml-2.0.0-master-2.0.xsd">
<omm id="CCSDS_OMM_VERS" version="2.0">
<header><CREATION_DATE/><ORIGINATOR/></header><body><segment><metadata><OBJECT_NAME>ORBCOMM FM24</OBJECT_NAME><OBJECT_ID>1998-053D</OBJECT_ID><CENTER_NAME>EARTH</CENTER_NAME><REF_FRAME>TEME</REF_FRAME><TIME_SYSTEM>UTC</TIME_SYSTEM><MEAN_ELEMENT_THEORY>SGP4</MEAN_ELEMENT_THEORY></metadata><data><meanElements><EPOCH>2024-10-18T19:21:30.503520</EPOCH><MEAN_MOTION>14.36707872</MEAN_MOTION><ECCENTRICITY>.0000844</ECCENTRICITY><INCLINATION>45.0088</INCLINATION><RA_OF_ASC_NODE>332.5264</RA_OF_ASC_NODE><ARG_OF_PERICENTER>269.3672</ARG_OF_PERICENTER><MEAN_ANOMALY>90.7079</MEAN_ANOMALY></meanElements><tleParameters><EPHEMERIS_TYPE>0</EPHEMERIS_TYPE><CLASSIFICATION_TYPE>U</CLASSIFICATION_TYPE><NORAD_CAT_ID>25478</NORAD_CAT_ID><ELEMENT_SET_NO>999</ELEMENT_SET_NO><REV_AT_EPOCH>36271</REV_AT_EPOCH><BSTAR>.18537E-2</BSTAR><MEAN_MOTION_DOT>.5375E-4</MEAN_MOTION_DOT><MEAN_MOTION_DDOT>0</MEAN_MOTION_DDOT></tleParameters></data></segment></body></omm>
<omm id="CCSDS_OMM_VERS" version="2.0">
<header><CREATION_DATE/><ORIGINATOR/></header><body><segment><metadata><OBJECT_NAME>ORBCOMM FM25</OBJECT_NAME><OBJECT_ID>1998-053E</OBJECT_ID><CENTER_NAME>EARTH</CENTER_NAME><REF_FRAME>TEME</REF_FRAME><TIME_SYSTEM>UTC</TIME_SYSTEM><MEAN_ELEMENT_THEORY>SGP4</MEAN_ELEMENT_THEORY></metadata><data><meanElements><EPOCH>2024-10-18T20:15:52.062912</EPOCH><MEAN_MOTION>14.36696564</MEAN_MOTION><ECCENTRICITY>.0001829</ECCENTRICITY><INCLINATION>45.0077</INCLINATION><RA_OF_ASC_NODE>330.6010</RA_OF_ASC_NODE><ARG_OF_PERICENTER>139.6177</ARG_OF_PERICENTER><MEAN_ANOMALY>220.4806</MEAN_ANOMALY></meanElements><tleParameters><EPHEMERIS_TYPE>0</EPHEMERIS_TYPE><CLASSIFICATION_TYPE>U</CLASSIFICATION_TYPE><NORAD_CAT_ID>25479</NORAD_CAT_ID><ELEMENT_SET_NO>999</ELEMENT_SET_NO><REV_AT_EPOCH>36301</REV_AT_EPOCH><BSTAR>.17731E-2</BSTAR><MEAN_MOTION_DOT>.5134E-4</MEAN_MOTION_DOT><MEAN_MOTION_DDOT>0</MEAN_MOTION_DDOT></tleParameters></data></segment></body></omm>
<omm id="CCSDS_OMM_VERS" version="2.0">
<header><CREATION_DATE/><ORIGINATOR/></header><body><segment><metadata><OBJECT_NAME>ORBCOMM FM26</OBJECT_NAME><OBJECT_ID>1998-053F</OBJECT_ID><CENTER_NAME>EARTH</CENTER_NAME><REF_FRAME>TEME</REF_FRAME><TIME_SYSTEM>UTC</TIME_SYSTEM><MEAN_ELEMENT_THEORY>SGP4</MEAN_ELEMENT_THEORY></metadata><data><meanElements><EPOCH>2024-10-18T18:45:49.580640</EPOCH><MEAN_MOTION>14.35969319</MEAN_MOTION><ECCENTRICITY>.0004389</ECCENTRICITY><INCLINATION>45.0071</INCLINATION><RA_OF_ASC_NODE>325.7796</RA_OF_ASC_NODE><ARG_OF_PERICENTER>156.1310</ARG_OF_PERICENTER><MEAN_ANOMALY>203.9741</MEAN_ANOMALY></meanElements><tleParameters><EPHEMERIS_TYPE>0</EPHEMERIS_TYPE><CLASSIFICATION_TYPE>U</CLASSIFICATION_TYPE><NORAD_CAT_ID>25480</NORAD_CAT_ID><ELEMENT_SET_NO>999</ELEMENT_SET_NO><REV_AT_EPOCH>36293</REV_AT_EPOCH><BSTAR>.17486E-2</BSTAR><MEAN_MOTION_DOT>.4986E-4</MEAN_MOTION_DOT><MEAN_MOTION_DDOT>0</MEAN_MOTION_DDOT></tleParameters></data></segment></body></omm>
<omm id="CCSDS_OMM_VERS" version="2.0">
<header><CREATION_DATE/><ORIGINATOR/></header><body><segment><metadata><OBJECT_NAME>ORBCOMM FM27</OBJECT_NAME><OBJECT_ID>1998-053G</OBJECT_ID><CENTER_NAME>EARTH</CENTER_NAME><REF_FRAME>TEME</REF_FRAME><TIME_SYSTEM>UTC</TIME_SYSTEM><MEAN_ELEMENT_THEORY>SGP4</MEAN_ELEMENT_THEORY></metadata><data><meanElements><EPOCH>2024-10-18T20:00:35.468640</EPOCH><MEAN_MOTION>14.36685742</MEAN_MOTION><ECCENTRICITY>.0002417</ECCENTRICITY><INCLINATION>45.0061</INCLINATION><RA_OF_ASC_NODE>330.9071</RA_OF_ASC_NODE><ARG_OF_PERICENTER>273.8484</ARG_OF_PERICENTER><MEAN_ANOMALY>86.2088</MEAN_ANOMALY></meanElements><tleParameters><EPHEMERIS_TYPE>0</EPHEMERIS_TYPE><CLASSIFICATION_TYPE>U</CLASSIFICATION_TYPE><NORAD_CAT_ID>25481</NORAD_CAT_ID><ELEMENT_SET_NO>999</ELEMENT_SET_NO><REV_AT_EPOCH>36294</REV_AT_EPOCH><BSTAR>.1942E-2</BSTAR><MEAN_MOTION_DOT>.5636E-4</MEAN_MOTION_DOT><MEAN_MOTION_DDOT>0</MEAN_MOTION_DDOT></tleParameters></data></segment></body></omm>
<omm id="CCSDS_OMM_VERS" version="2.0">
<header><CREATION_DATE/><ORIGINATOR/></header><body><segment><metadata><OBJECT_NAME>ORBCOMM FM28</OBJECT_NAME><OBJECT_ID>1998-053H</OBJECT_ID><CENTER_NAME>EARTH</CENTER_NAME><REF_FRAME>TEME</REF_FRAME><TIME_SYSTEM>UTC</TIME_SYSTEM><MEAN_ELEMENT_THEORY>SGP4</MEAN_ELEMENT_THEORY></metadata><data><meanElements><EPOCH>2024-10-18T21:56:36.831552</EPOCH><MEAN_MOTION>14.37025018</MEAN_MOTION><ECCENTRICITY>.0002706</ECCENTRICITY><INCLINATION>45.0052</INCLINATION><RA_OF_ASC_NODE>268.4967</RA_OF_ASC_NODE><ARG_OF_PERICENTER>196.3284</ARG_OF_PERICENTER><MEAN_ANOMALY>163.7477</MEAN_ANOMALY></meanElements><tleParameters><EPHEMERIS_TYPE>0</EPHEMERIS_TYPE><CLASSIFICATION_TYPE>U</CLASSIFICATION_TYPE><NORAD_CAT_ID>25482</NORAD_CAT_ID><ELEMENT_SET_NO>999</ELEMENT_SET_NO><REV_AT_EPOCH>36363</REV_AT_EPOCH><BSTAR>.19031E-2</BSTAR><MEAN_MOTION_DOT>.5559E-4</MEAN_MOTION_DOT><MEAN_MOTION_DDOT>0</MEAN_MOTION_DDOT></tleParameters></data></segment></body></omm>
<omm id="CCSDS_OMM_VERS" version="2.0">
<header><CREATION_DATE/><ORIGINATOR/></header><body><segment><metadata><OBJECT_NAME>ORBCOMM FM30</OBJECT_NAME><OBJECT_ID>1999-065A</OBJECT_ID><CENTER_NAME>EARTH</CENTER_NAME><REF_FRAME>TEME</REF_FRAME><TIME_SYSTEM>UTC</TIME_SYSTEM><MEAN_ELEMENT_THEORY>SGP4</MEAN_ELEMENT_THEORY></metadata><data><meanElements><EPOCH>2024-10-18T22:29:14.341920</EPOCH><MEAN_MOTION>14.36115412</MEAN_MOTION><ECCENTRICITY>.0005843</ECCENTRICITY><INCLINATION>45.0297</INCLINATION><RA_OF_ASC_NODE>150.7314</RA_OF_ASC_NODE><ARG_OF_PERICENTER>236.3428</ARG_OF_PERICENTER><MEAN_ANOMALY>123.6862</MEAN_ANOMALY></meanElements><tleParameters><EPHEMERIS_TYPE>0</EPHEMERIS_TYPE><CLASSIFICATION_TYPE>U</CLASSIFICATION_TYPE><NORAD_CAT_ID>25980</NORAD_CAT_ID><ELEMENT_SET_NO>999</ELEMENT_SET_NO><REV_AT_EPOCH>29975</REV_AT_EPOCH><BSTAR>.15212E-2</BSTAR><MEAN_MOTION_DOT>.4332E-4</MEAN_MOTION_DOT><MEAN_MOTION_DDOT>0</MEAN_MOTION_DDOT></tleParameters></data></segment></body></omm>
<omm id="CCSDS_OMM_VERS" version="2.0">
<header><CREATION_DATE/><ORIGINATOR/></header><body><segment><metadata><OBJECT_NAME>ORBCOMM FM31</OBJECT_NAME><OBJECT_ID>1999-065B</OBJECT_ID><CENTER_NAME>EARTH</CENTER_NAME><REF_FRAME>TEME</REF_FRAME><TIME_SYSTEM>UTC</TIME_SYSTEM><MEAN_ELEMENT_THEORY>SGP4</MEAN_ELEMENT_THEORY></metadata><data><meanElements><EPOCH>2024-10-18T21:41:33.294912</EPOCH><MEAN_MOTION>14.36084265</MEAN_MOTION><ECCENTRICITY>.0003118</ECCENTRICITY><INCLINATION>45.0210</INCLINATION><RA_OF_ASC_NODE>144.4789</RA_OF_ASC_NODE><ARG_OF_PERICENTER>259.6760</ARG_OF_PERICENTER><MEAN_ANOMALY>100.3736</MEAN_ANOMALY></meanElements><tleParameters><EPHEMERIS_TYPE>0</EPHEMERIS_TYPE><CLASSIFICATION_TYPE>U</CLASSIFICATION_TYPE><NORAD_CAT_ID>25981</NORAD_CAT_ID><ELEMENT_SET_NO>999</ELEMENT_SET_NO><REV_AT_EPOCH>29930</REV_AT_EPOCH><BSTAR>.15327E-2</BSTAR><MEAN_MOTION_DOT>.4363E-4</MEAN_MOTION_DOT><MEAN_MOTION_DDOT>0</MEAN_MOTION_DDOT></tleParameters></data></segment></body></omm>
<omm id="CCSDS_OMM_VERS" version="2.0">
<header><CREATION_DATE/><ORIGINATOR/></header><body><segment><metadata><OBJECT_NAME>ORBCOMM FM32</OBJECT_NAME><OBJECT_ID>1999-065C</OBJECT_ID><CENTER_NAME>EARTH</CENTER_NAME><REF_FRAME>TEME</REF_FRAME><TIME_SYSTEM>UTC</TIME_SYSTEM><MEAN_ELEMENT_THEORY>SGP4</MEAN_ELEMENT_THEORY></metadata><data><meanElements><EPOCH>2024-10-18T22:15:20.414304</EPOCH><MEAN_MOTION>14.35111346</MEAN_MOTION><ECCENTRICITY>.0005144</ECCENTRICITY><INCLINATION>45.0140</INCLINATION><RA_OF_ASC_NODE>159.3060</RA_OF_ASC_NODE><ARG_OF_PERICENTER>265.7445</ARG_OF_PERICENTER><MEAN_ANOMALY>94.2814</MEAN_ANOMALY></meanElements><tleParameters><EPHEMERIS_TYPE>0</EPHEMERIS_TYPE><CLASSIFICATION_TYPE>U</CLASSIFICATION_TYPE><NORAD_CAT_ID>25982</NORAD_CAT_ID><ELEMENT_SET_NO>999</ELEMENT_SET_NO><REV_AT_EPOCH>29992</REV_AT_EPOCH><BSTAR>.1528E-2</BSTAR><MEAN_MOTION_DOT>.4263E-4</MEAN_MOTION_DOT><MEAN_MOTION_DDOT>0</MEAN_MOTION_DDOT></tleParameters></data></segment></body></omm>

</ndm>
